BEIDOU-2 IGSO-1 (C06)   
1 36828U 10036A   24163.95217988 -.00000066  00000+0  00000+0 0  9993
2 36828  54.2521 169.6092 0042024 207.2221 334.0900  1.00284523 50839
BEIDOU-2 G4 (C04)       
1 37210U 10057A   24164.17748225 -.00000108  00000+0  00000+0 0  9997
2 37210   1.8341  68.7591 0003211 168.1314 248.0695  1.00271633 49920
BEIDOU-2 IGSO-2 (C07)   
1 37256U 10068A   24163.70851116 -.00000207  00000+0  00000+0 0  9991
2 37256  48.8892 280.8881 0035594 209.2560 130.7894  1.00252123 49415
BEIDOU-2 IGSO-3 (C08)   
1 37384U 11013A   24163.69223437 -.00000195  00000+0  00000+0 0  9997
2 37384  61.3437  47.1629 0026274 175.3634  34.2018  1.00260383 48283
BEIDOU-2 IGSO-4 (C09)   
1 37763U 11038A   24163.46120440  .00000013  00000+0  00000+0 0  9998
2 37763  54.5577 172.2237 0125689 229.0649 119.7504  1.00260751 47266
BEIDOU-2 IGSO-5 (C10)   
1 37948U 11073A   24164.28705581 -.00000211  00000+0  00000+0 0  9999
2 37948  49.0204 280.5678 0100343 219.9629 316.9608  1.00295106 45766
BEIDOU-2 G5 (C05)       
1 38091U 12008A   24164.15727976  .00000061  00000+0  00000+0 0  9998
2 38091   2.0647  70.8485 0005814 270.9099  34.4943  1.00269672 44994
BEIDOU-2 M3 (C11)       
1 38250U 12018A   24164.10018068 -.00000090  00000+0  00000+0 0  9999
2 38250  56.3423 329.5106 0020795 262.7611  96.9958  1.86231408 82602
BEIDOU-2 M4 (C12)       
1 38251U 12018B   24164.03040265 -.00000089  00000+0  00000+0 0  9994
2 38251  56.2496 328.7849 0011679 264.6201  95.2395  1.86232127 82251
BEIDOU-2 M6 (C14)       
1 38775U 12050B   24164.27686196 -.00000031  00000+0  00000+0 0  9993
2 38775  55.9093  87.3271 0014088 339.1712  20.7673  1.86231238 79979
BEIDOU-2 G6 (C02)       
1 38953U 12059A   24164.09075661 -.00000173  00000+0  00000+0 0  9996
2 38953   2.5478  80.5436 0009914 315.4538 341.6184  1.00273881 42535
BEIDOU-3S IGSO-1S (C31) 
1 40549U 15019A   24164.27139378 -.00000160  00000+0  00000+0 0  9991
2 40549  50.5833 304.2480 0038347 191.8840 313.3315  1.00251865 33705
BEIDOU-3S M2S (C58)     
1 40748U 15037A   24162.08288149 -.00000095  00000+0  00000+0 0  9997
2 40748  55.4830 327.2751 0008259 248.6108 111.2886  1.86233314 60396
BEIDOU-3S M1S (C57)     
1 40749U 15037B   24163.96411878 -.00000091  00000+0  00000+0 0  9999
2 40749  55.4847 327.1984 0003426   1.7834 358.2097  1.86233088 60426
BEIDOU-3S IGSO-2S (C56) 
1 40938U 15053A   24163.70173345 -.00000145  00000+0  00000+0 0  9993
2 40938  50.3659 267.4694 0052617 189.7428 151.6078  1.00263909 31970
BEIDOU-2 IGSO-6 (C13)   
1 41434U 16021A   24163.75449444 -.00000172  00000+0  00000+0 0  9992
2 41434  59.1693  45.4014 0047788 223.1526 359.5380  1.00272445 30106
BEIDOU-2 G7 (C03)       
1 41586U 16037A   24164.02443144 -.00000351  00000+0  00000+0 0  9998
2 41586   1.8955  69.6154 0009067   2.1306 308.3066  1.00278231 29415
BEIDOU-3 M1 (C19)       
1 43001U 17069A   24164.04290255 -.00000030  00000+0  00000+0 0  9997
2 43001  56.0598  87.4305 0011000 309.1747  50.7231  1.86231643 44913
BEIDOU-3 M2 (C20)       
1 43002U 17069B   24162.36925857 -.00000033  00000+0  00000+0 0  9997
2 43002  56.0576  87.5225 0009275 331.0738  28.8646  1.86231109 44875
BEIDOU-3 M7 (C27)       
1 43107U 18003A   24162.11843344 -.00000096  00000+0  00000+0 0  9994
2 43107  54.9409 327.8679 0004867  75.9300 284.1124  1.86232605 43629
BEIDOU-3 M8 (C28)       
1 43108U 18003B   24163.13271601 -.00000094  00000+0  00000+0 0  9997
2 43108  54.9332 327.8186 0002535 253.9784 105.9842  1.86231080 43658
BEIDOU-3 M4 (C22)       
1 43207U 18018A   24164.11098117 -.00000030  00000+0  00000+0 0  9991
2 43207  56.0187  87.5174 0007083 356.1168   3.8730  1.86231551 43050
BEIDOU-3 M3 (C21)       
1 43208U 18018B   24164.17756583 -.00000030  00000+0  00000+0 0  9996
2 43208  56.0181  87.5196 0009002 321.5798  38.3517  1.86231463 43055
BEIDOU-3 M9 (C29)       
1 43245U 18029A   24162.25103937 -.00000095  00000+0  00000+0 0  9996
2 43245  54.8242 325.5713 0000579 126.5590 233.4333  1.86232855 42175
BEIDOU-3 M10 (C30)      
1 43246U 18029B   24162.18072289 -.00000095  00000+0  00000+0 0  9994
2 43246  54.8218 325.6022 0003791  22.9532 337.0505  1.86233026 42158
BEIDOU-2 IGSO-7 (C16)   
1 43539U 18057A   24164.51730477 -.00000062  00000+0  00000+0 0  9993
2 43539  55.1416 169.4082 0075421 233.7097 155.3593  1.00254777 21768
BEIDOU-3 M5 (C23)       
1 43581U 18062A   24163.47760195  .00000022  00000+0  00000+0 0  9995
2 43581  54.1328 207.3285 0005205 274.2056  85.8068  1.86228888 39931
BEIDOU-3 M6 (C24)       
1 43582U 18062B   24164.41740376  .00000028  00000+0  00000+0 0  9996
2 43582  54.1322 207.2859 0004161 358.6969   1.3723  1.86229741 39954
BEIDOU-3 M12 (C26)      
1 43602U 18067A   24163.27689993  .00000023  00000+0  00000+0 0  9999
2 43602  54.2228 206.0056 0006642  18.4577 341.6377  1.86231793 39417
BEIDOU-3 M11 (C25)      
1 43603U 18067B   24162.33695187  .00000023  00000+0  00000+0 0  9998
2 43603  54.2199 206.0027 0003646   0.5325 359.5424  1.86231648 39428
BEIDOU-3 M13 (C32)      
1 43622U 18072A   24162.83479391 -.00000033  00000+0  00000+0 0  9999
2 43622  55.9885  87.0917 0007594 308.8402  51.0844  1.86231602 38946
BEIDOU-3 M14 (C33)      
1 43623U 18072B   24163.23720431 -.00000032  00000+0  00000+0 0  9998
2 43623  55.9906  87.0714 0005867 335.3382  24.6275  1.86231622 38945
BEIDOU-3 M16 (C35)      
1 43647U 18078A   24163.93688864 -.00000091  00000+0  00000+0 0  9995
2 43647  54.7195 325.6128 0007137  24.5370 335.4879  1.86232404 38463
BEIDOU-3 M15 (C34)      
1 43648U 18078B   24164.06606773 -.00000091  00000+0  00000+0 0  9990
2 43648  54.7152 325.6113 0004319  40.3881 319.6352  1.86232444 38489
BEIDOU-3 G1 (C59)       
1 43683U 18085A   24164.24501216 -.00000274  00000+0  00000+0 0  9996
2 43683   2.1803 109.7577 0003734 347.0247  32.4341  1.00276511 20697
BEIDOU-3 M17 (C36)      
1 43706U 18093A   24163.14242658  .00000021  00000+0  00000+0 0  9990
2 43706  54.2157 207.2777 0010066 279.3777  80.5813  1.86228536 37818
BEIDOU-3 M18 (C37)      
1 43707U 18093B   24163.00781802  .00000021  00000+0  00000+0 0  9995
2 43707  54.2164 207.2742 0007901 304.5867  55.4120  1.86230025 37823
BEIDOU-3 IGSO-1 (C38)   
1 44204U 19023A   24164.47615147 -.00000228  00000+0  00000+0 0  9992
2 44204  57.6353  45.2719 0018782 210.1247 293.0287  1.00251324 18992
BEIDOU-2 G8 (C01)       
1 44231U 19027A   24164.24588240 -.00000246  00000+0  00000+0 0  9994
2 44231   1.9373  73.8980 0002840 151.1221 268.9413  1.00266894 18717
BEIDOU-3 IGSO-2 (C39)   
1 44337U 19035A   24157.45853507 -.00000053  00000+0  00000+0 0  9992
2 44337  55.1771 165.3705 0033237 210.0015 158.9733  1.00244537 18239
BEIDOU-3 M24 (C46)      
1 44542U 19061A   24163.61439201  .00000022  00000+0  00000+0 0  9990
2 44542  54.4432 207.5471 0007549 342.8227  17.2238  1.86231368 32097
BEIDOU-3 M23 (C45)      
1 44543U 19061B   24164.35768306  .00000027  00000+0  00000+0 0  9999
2 44543  54.4416 207.4908 0005211 321.4818  89.1699  1.86231844 32107
BEIDOU-3 IGSO-3 (C40)   
1 44709U 19073A   24163.75509829 -.00000203  00000+0  00000+0 0  9999
2 44709  56.0600 288.7841 0038854 181.5436 178.4155  1.00251169 17089
BEIDOU-3 M22 (C44)      
1 44793U 19078A   24163.99712204 -.00000092  00000+0  00000+0 0  9992
2 44793  54.5674 325.5435 0006199  33.4580 326.5722  1.86232349 30968
BEIDOU-3 M21 (C43)      
1 44794U 19078B   24163.05302434 -.00000093  00000+0  00000+0 0  9991
2 44794  54.5418 325.5524 0004025  32.2924 327.7211  1.86232770 30941
BEIDOU-3 M19 (C41)      
1 44864U 19090A   24163.59411098 -.00000031  00000+0  00000+0 0  9991
2 44864  55.9236  87.2375 0018191 285.5734 270.0725  1.86231913 30521
BEIDOU-3 M20 (C42)      
1 44865U 19090B   24164.55980176 -.00000032  00000+0  00000+0 0  9998
2 44865  55.9259  87.2388 0016156 298.8834 273.9457  1.86231846 30527
BEIDOU-3 G2 (C60)       
1 45344U 20017A   24164.16154385 -.00000139  00000+0  00000+0 0  9992
2 45344   2.3103  29.4686 0001144 103.5571 266.1411  1.00272271 15894
BEIDOU-3 G3 (C61)       
1 45807U 20040A   24164.23918167 -.00000350  00000+0  00000+0 0  9991
2 45807   0.7696  41.7945 0005368 283.9536 131.9695  1.00274503 14700
BEIDOU-3 G4             
1 56564U 23066A   24164.17748225 -.00000108  00000+0  00000+0 0  9994
2 56564   2.1346 288.2195 0005394 199.6376 357.0483  1.00271141  4024
BEIDOU-3 M25            
1 58654U 23207A   24164.20966648 -.00000032  00000+0  00000+0 0  9994
2 58654  55.1065  87.2367 0003422 308.0983  51.8663  1.86232406  3157
BEIDOU-3 M26            
1 58655U 23207B   24164.00861897 -.00000032  00000+0  00000+0 0  9993
2 58655  55.1084  87.2289 0003745 284.9847  74.9689  1.86232043  3130
